{"type": "FeatureCollection", "features": [ {"type": "Feature", "properties": {"norad_id": 42969, "name": "SENTINEL-5P", "group": "resource", "lat": -81.01188953010661, "lon": 24.742539667274325, "alt_km": 835.0041026033432, "timestamp": "2025-12-09T18:55:16.896109+00:00", "meta": {"OBJECT_NAME": "SENTINEL-5P", "OBJECT_ID": "2017-064A", "EPOCH": "2025-12-09T10:53:44.002464", "MEAN_MOTION": 14.19516274, "ECCENTRICITY": 9.558e-05, "INCLINATION": 98.7781, "RA_OF_ASC_NODE": 282.0673, "ARG_OF_PERICENTER": 87.4839, "MEAN_ANOMALY": 272.6447, "EPHEMERIS_TYPE": 0, "CLASSIFICATION_TYPE": "U", "NORAD_CAT_ID": 42969, "ELEMENT_SET_NO": 999, "REV_AT_EPOCH": 42264, "BSTAR": 0.00010968875, "MEAN_MOTION_DOT": 1.87e-06, "MEAN_MOTION_DDOT": 0}, "tle": {"line1": "1 42969U 17064A   25343.45398151  .00000187  00000+0  10969-3 0  9994", "line2": "2 42969  98.7781 282.0673 0000955  87.4839 272.6447 14.19516274422648"}}, "geometry": {"type": "Point", "coordinates": [24.742539667274325, -81.01188953010661]}}, {"type": "Feature", "properties": {"norad_id": 42987, "name": "SKYSAT-C11", "group": "resource", "lat": 72.58295699246905, "lon": -34.26609125685678, "alt_km": 417.17360013620873, "timestamp": "2025-12-09T18:55:16.896119+00:00", "meta": {"OBJECT_NAME": "SKYSAT-C11", "OBJECT_ID": "2017-068A", "EPOCH": "2025-12-09T09:09:10.542528", "MEAN_MOTION": 15.47229769, "ECCENTRICITY": 9.333e-05, "INCLINATION": 97.4143, "RA_OF_ASC_NODE": 120.7906, "ARG_OF_PERICENTER": 105.2385, "MEAN_ANOMALY": 254.8969, "EPHEMERIS_TYPE": 0, "CLASSIFICATION_TYPE": "U", "NORAD_CAT_ID": 42987, "ELEMENT_SET_NO": 999, "REV_AT_EPOCH": 45379, "BSTAR": 0.00057838753, "MEAN_MOTION_DOT": 0.00029408, "MEAN_MOTION_DDOT": 0}, "tle": {"line1": "1 42987U 17068A   25343.38137202  .00029408  00000+0  57839-3 0  9992", "line2": "2 42987  97.4143 120.7906 0000933 105.2385 254.8969 15.47229769453797"}}, "geometry": {"type": "Point", "coordinates": [-34.26609125685678, 72.58295699246905]}}, {"type": "Feature", "properties": {"norad_id": 42988, "name": "SKYSAT-C10", "group": "resource", "lat": -11.093288233394805, "lon": 116.09702914696298, "alt_km": 476.3708164257123, "timestamp": "2025-12-09T18:55:16.896130+00:00", "meta": {"OBJECT_NAME": "SKYSAT-C10", "OBJECT_ID": "2017-068B", "EPOCH": "2025-12-09T14:16:01.915104", "MEAN_MOTION": 15.3195453, "ECCENTRICITY": 0.00053023, "INCLINATION": 97.4261, "RA_OF_ASC_NODE": 114.4372, "ARG_OF_PERICENTER": 112.69, "MEAN_ANOMALY": 247.4903, "EPHEMERIS_TYPE": 0, "CLASSIFICATION_TYPE": "U", "NORAD_CAT_ID": 42988, "ELEMENT_SET_NO": 999, "REV_AT_EPOCH": 45331, "BSTAR": 0.00049799357, "MEAN_MOTION_DOT": 0.00015306, "MEAN_MOTION_DDOT": 0}, "tle": {"line1": "1 42988U 17068B   25343.59446661  .00015306  00000+0  49799-3 0  9996", "line2": "2 42988  97.4261 114.4372 0005302 112.6900 247.4903 15.31954530453314"}}, "geometry": {"type": "Point", "coordinates": [116.09702914696298, -11.093288233394805]}}, {"type": "Feature", "properties": {"norad_id": 42989, "name": "SKYSAT-C9", "group": "resource", "lat": 25.226810136170347, "lon": -62.460995482935814, "alt_km": 453.55135245950987, "timestamp": "2025-12-09T18:55:16.896140+00:00", "meta": {"OBJECT_NAME": "SKYSAT-C9", "OBJECT_ID": "2017-068C", "EPOCH": "2025-12-09T08:52:14.036160", "MEAN_MOTION": 15.35916317, "ECCENTRICITY": 0.00106932, "INCLINATION": 97.4191, "RA_OF_ASC_NODE": 113.5973, "ARG_OF_PERICENTER": 98.5106, "MEAN_ANOMALY": 261.735, "EPHEMERIS_TYPE": 0, "CLASSIFICATION_TYPE": "U", "NORAD_CAT_ID": 42989, "ELEMENT_SET_NO": 999, "REV_AT_EPOCH": 45356, "BSTAR": 0.00052582386, "MEAN_MOTION_DOT": 0.00018356, "MEAN_MOTION_DDOT": 0}, "tle": {"line1": "1 42989U 17068C   25343.36960690  .00018356  00000+0  52582-3 0  9997", "line2": "2 42989  97.4191 113.5973 0010693  98.5106 261.7350 15.35916317453560"}}, "geometry": {"type": "Point", "coordinates": [-62.460995482935814, 25.226810136170347]}}, {"type": "Feature", "properties": {"norad_id": 42990, "name": "SKYSAT-C8", "group": "resource", "lat": 21.412149015073993, "lon": -63.29123220660269, "alt_km": 468.49366218593514, "timestamp": "2025-12-09T18:55:16.896151+00:00", "meta": {"OBJECT_NAME": "SKYSAT-C8", "OBJECT_ID": "2017-068D", "EPOCH": "2025-12-09T15:05:58.332768", "MEAN_MOTION": 15.32810205, "ECCENTRICITY": 0.00017927, "INCLINATION": 97.428, "RA_OF_ASC_NODE": 113.6163, "ARG_OF_PERICENTER": 2.1286, "MEAN_ANOMALY": 357.9963, "EPHEMERIS_TYPE": 0, "CLASSIFICATION_TYPE": "U", "NORAD_CAT_ID": 42990, "ELEMENT_SET_NO": 999, "REV_AT_EPOCH": 45323, "BSTAR": 0.00049880451, "MEAN_MOTION_DOT": 0.00015743, "MEAN_MOTION_DDOT": 0}, "tle": {"line1": "1 42990U 17068D   25343.62914737  .00015743  00000+0  49880-3 0  9993", "line2": "2 42990  97.4280 113.6163 0001792   2.1286 357.9963 15.32810205453231"}}, "geometry": {"type": "Point", "coordinates": [-63.29123220660269, 21.412149015073993]}}, {"type": "Feature", "properties": {"norad_id": 42991, "name": "SKYSAT-C7", "group": "resource", "lat": 19.655921536349997, "lon": 112.1482700119045, "alt_km": 465.72711123060617, "timestamp": "2025-12-09T18:55:16.896161+00:00", "meta": {"OBJECT_NAME": "SKYSAT-C7", "OBJECT_ID": "2017-068E", "EPOCH": "2025-12-09T07:51:48.807072", "MEAN_MOTION": 15.32208172, "ECCENTRICITY": 0.0007776, "INCLINATION": 97.429, "RA_OF_ASC_NODE": 114.3574, "ARG_OF_PERICENTER": 67.8691, "MEAN_ANOMALY": 292.3376, "EPHEMERIS_TYPE": 0, "CLASSIFICATION_TYPE": "U", "NORAD_CAT_ID": 42991, "ELEMENT_SET_NO": 999, "REV_AT_EPOCH": 45325, "BSTAR": 0.00049179, "MEAN_MOTION_DOT": 0.00015242, "MEAN_MOTION_DDOT": 0}, "tle": {"line1": "1 42991U 17068E   25343.32764823  .00015242  00000+0  49179-3 0  9995", "line2": "2 42991  97.4290 114.3574 0007776  67.8691 292.3376 15.32208172453259"}}, "geometry": {"type": "Point", "coordinates": [112.1482700119045, 19.655921536349997]}}, {"type": "Feature", "properties": {"norad_id": 42992, "name": "SKYSAT-C6", "group": "resource", "lat": 33.74502995136529, "lon": -59.7364039428456, "alt_km": 467.58227582536256, "timestamp": "2025-12-09T18:55:16.896171+00:00", "meta": {"OBJECT_NAME": "SKYSAT-C6", "OBJECT_ID": "2017-068F", "EPOCH": "2025-12-09T15:09:02.414016", "MEAN_MOTION": 15.31385394, "ECCENTRICITY": 0.00052326, "INCLINATION": 97.4322, "RA_OF_ASC_NODE": 115.1031, "ARG_OF_PERICENTER": 91.0715, "MEAN_ANOMALY": 269.1126, "EPHEMERIS_TYPE": 0, "CLASSIFICATION_TYPE": "U", "NORAD_CAT_ID": 42992, "ELEMENT_SET_NO": 999, "REV_AT_EPOCH": 45328, "BSTAR": 0.00049368141, "MEAN_MOTION_DOT": 0.00014905, "MEAN_MOTION_DDOT": 0}, "tle": {"line1": "1 42992U 17068F   25343.63127794  .00014905  00000+0  49368-3 0  9995", "line2": "2 42992  97.4322 115.1031 0005232  91.0715 269.1126 15.31385394453283"}}, "geometry": {"type": "Point", "coordinates": [-59.7364039428456, 33.74502995136529]}}, {"type": "Feature", "properties": {"norad_id": 43111, "name": "CARTOSAT-2F", "group": "resource", "lat": 21.19983122860305, "lon": 38.571892204678235, "alt_km": 508.35150032513593, "timestamp": "2025-12-09T18:55:16.896181+00:00", "meta": {"OBJECT_NAME": "CARTOSAT-2F", "OBJECT_ID": "2018-004A", "EPOCH": "2025-12-09T14:05:06.781056", "MEAN_MOTION": 15.19226125, "ECCENTRICITY": 6.818e-05, "INCLINATION": 97.4311, "RA_OF_ASC_NODE": 41.2755, "ARG_OF_PERICENTER": 139.9404, "MEAN_ANOMALY": 220.1881, "EPHEMERIS_TYPE": 0, "CLASSIFICATION_TYPE": "U", "NORAD_CAT_ID": 43111, "ELEMENT_SET_NO": 999, "REV_AT_EPOCH": 43854, "BSTAR": 0.00042826228, "MEAN_MOTION_DOT": 8.957e-05, "MEAN_MOTION_DDOT": 0}, "tle": {"line1": "1 43111U 18004A   25343.58688404  .00008957  00000+0  42826-3 0  9996", "line2": "2 43111  97.4311  41.2755 0000681 139.9404 220.1881 15.19226125438546"}}, "geometry": {"type": "Point", "coordinates": [38.571892204678235, 21.19983122860305]}}, {"type": "Feature", "properties": {"norad_id": 43259, "name": "GAOFEN-1 02", "group": "resource", "lat": -60.797234726753146, "lon": -153.1480461883594, "alt_km": 646.6878265479882, "timestamp": "2025-12-09T18:55:16.896190+00:00", "meta": {"OBJECT_NAME": "GAOFEN-1 02", "OBJECT_ID": "2018-031A", "EPOCH": "2025-12-09T14:34:35.592960", "MEAN_MOTION": 14.76471964, "ECCENTRICITY": 0.00014255, "INCLINATION": 98.0805, "RA_OF_ASC_NODE": 41.3955, "ARG_OF_PERICENTER": 224.1182, "MEAN_ANOMALY": 135.9914, "EPHEMERIS_TYPE": 0, "CLASSIFICATION_TYPE": "U", "NORAD_CAT_ID": 43259, "ELEMENT_SET_NO": 999, "REV_AT_EPOCH": 41472, "BSTAR": 0.00028578522, "MEAN_MOTION_DOT": 1.938e-05, "MEAN_MOTION_DDOT": 0}, "tle": {"line1": "1 43259U 18031A   25343.60735640  .00001938  00000+0  28579-3 0  9998", "line2": "2 43259  98.0805  41.3955 0001425 224.1182 135.9914 14.76471964414723"}}, "geometry": {"type": "Point", "coordinates": [-153.1480461883594, -60.797234726753146]}}, {"type": "Feature", "properties": {"norad_id": 43260, "name": "GAOFEN-1 03", "group": "resource", "lat": -2.8502503395402115, "lon": 41.858997849350565, "alt_km": 642.5707993277329, "timestamp": "2025-12-09T18:55:16.896201+00:00", "meta": {"OBJECT_NAME": "GAOFEN-1 03", "OBJECT_ID": "2018-031B", "EPOCH": "2025-12-09T15:40:52.699872", "MEAN_MOTION": 14.76427683, "ECCENTRICITY": 0.00021904, "INCLINATION": 98.0803, "RA_OF_ASC_NODE": 41.3187, "ARG_OF_PERICENTER": 335.7291, "MEAN_ANOMALY": 24.3815, "EPHEMERIS_TYPE": 0, "CLASSIFICATION_TYPE": "U", "NORAD_CAT_ID": 43260, "ELEMENT_SET_NO": 999, "REV_AT_EPOCH": 41472, "BSTAR": 0.0002527277, "MEAN_MOTION_DOT": 1.706e-05, "MEAN_MOTION_DDOT": 0}, "tle": {"line1": "1 43260U 18031B   25343.65338773  .00001706  00000+0  25273-3 0  9992", "line2": "2 43260  98.0803  41.3187 0002190 335.7291  24.3815 14.76427683414720"}}, "geometry": {"type": "Point", "coordinates": [41.858997849350565, -2.8502503395402115]}}]}